{
"type": "FeatureCollection",
"name": "brisbane_30",
"crs": { "type": "name", "properties": { "name": "urn:ogc:def:crs:OGC:1.3:CRS84" } },
"features": [
{ "type": "Feature", "properties": { "osm_id": "7920172", "road_name": "Chancellors Place", "highway": "unclassified", "maxspeed_kmh": 30.0, "length_km": 0.021888847564174703 }, "geometry": { "type": "LineString", "coordinates": [ [ 153.01100550000001, -27.4981197 ], [ 153.0110434, -27.497925 ] ] } },
{ "type": "Feature", "properties": { "osm_id": "7920180", "road_name": "College Road", "highway": "unclassified", "maxspeed_kmh": 30.0, "length_km": 0.11629130483326054 }, "geometry": { "type": "LineString", "coordinates": [ [ 153.011709599999989, -27.5025219 ], [ 153.012531, -27.5018059 ] ] } },
{ "type": "Feature", "properties": { "osm_id": "7920181", "road_name": "Thynne Road", "highway": "unclassified", "maxspeed_kmh": 30.0, "length_km": 0.20161514590629326 }, "geometry": { "type": "LineString", "coordinates": [ [ 153.0176684, -27.4999309 ], [ 153.0184289, -27.5015813 ] ] } },
{ "type": "Feature", "properties": { "osm_id": "7920184", "road_name": "Blair Drive", "highway": "unclassified", "maxspeed_kmh": 30.0, "length_km": 0.28676568208677494 }, "geometry": { "type": "LineString", "coordinates": [ [ 153.01424, -27.4944224 ], [ 153.0158803, -27.4948732 ], [ 153.016809300000034, -27.4942901 ] ] } },
{ "type": "Feature", "properties": { "osm_id": "7920186", "road_name": "Union Road", "highway": "unclassified", "maxspeed_kmh": 30.0, "length_km": 0.021907326884900012 }, "geometry": { "type": "LineString", "coordinates": [ [ 153.0160407, -27.4948541 ], [ 153.0161197, -27.4950389 ] ] } },
{ "type": "Feature", "properties": { "osm_id": "17971872", "road_name": "Sutton Street", "highway": "unclassified", "maxspeed_kmh": 30.0, "length_km": 0.066980895715294086 }, "geometry": { "type": "LineString", "coordinates": [ [ 153.114021400000013, -27.2271573 ], [ 153.114129100000014, -27.2277512 ] ] } },
{ "type": "Feature", "properties": { "osm_id": "23002122", "road_name": "Kinrade Place", "highway": "residential", "maxspeed_kmh": 30.0, "length_km": 0.10165753568677982 }, "geometry": { "type": "LineString", "coordinates": [ [ 153.1081646, -27.501087 ], [ 153.108884499999988, -27.5011126 ], [ 153.1090931, -27.5009315 ] ] } },
{ "type": "Feature", "properties": { "osm_id": "23131514", "road_name": "Middle Street", "highway": "residential", "maxspeed_kmh": 30.0, "length_km": 0.24703743852530652 }, "geometry": { "type": "LineString", "coordinates": [ [ 153.265457700000013, -27.5258176 ], [ 153.267955300000011, -27.5259428 ] ] } },
{ "type": "Feature", "properties": { "osm_id": "23730692", "road_name": "Sir William MacGregor Drive", "highway": "unclassified", "maxspeed_kmh": 30.0, "length_km": 0.060144794615453467 }, "geometry": { "type": "LineString", "coordinates": [ [ 153.0119288, -27.4936037 ], [ 153.0120315, -27.4930685 ] ] } },
{ "type": "Feature", "properties": { "osm_id": "23730730", "road_name": "University Drive", "highway": "unclassified", "maxspeed_kmh": 30.0, "length_km": 0.099277700565351359 }, "geometry": { "type": "LineString", "coordinates": [ [ 153.013068299999986, -27.4950045 ], [ 153.013230600000014, -27.4958743 ] ] } },
{ "type": "Feature", "properties": { "osm_id": "23750764", "road_name": "University Drive", "highway": "unclassified", "maxspeed_kmh": 30.0, "length_km": 0.064789428657771264 }, "geometry": { "type": "LineString", "coordinates": [ [ 153.0125753, -27.4965631 ], [ 153.0125696, -27.4960512 ] ] } },
{ "type": "Feature", "properties": { "osm_id": "23750818", "road_name": "Campbell Road", "highway": "unclassified", "maxspeed_kmh": 30.0, "length_km": 0.088154055759767203 }, "geometry": { "type": "LineString", "coordinates": [ [ 153.0120665, -27.4946716 ], [ 153.0129068, -27.4949295 ] ] } },
{ "type": "Feature", "properties": { "osm_id": "24239506", "road_name": "College Road", "highway": "unclassified", "maxspeed_kmh": 30.0, "length_km": 0.05612078070976062 }, "geometry": { "type": "LineString", "coordinates": [ [ 153.0113122, -27.5024065 ], [ 153.01186580000001, -27.5022994 ] ] } },
{ "type": "Feature", "properties": { "osm_id": "24257873", "road_name": "Services Road", "highway": "unclassified", "maxspeed_kmh": 30.0, "length_km": 0.15432311642009969 }, "geometry": { "type": "LineString", "coordinates": [ [ 153.011056, -27.4978603 ], [ 153.0099372, -27.4976929 ], [ 153.0099993, -27.4973158 ] ] } },
{ "type": "Feature", "properties": { "osm_id": "24257933", "road_name": "Hood Street", "highway": "residential", "maxspeed_kmh": 30.0, "length_km": 0.22689874612027466 }, "geometry": { "type": "LineString", "coordinates": [ [ 153.0077281, -27.4970094 ], [ 153.0099993, -27.4973158 ] ] } },
{ "type": "Feature", "properties": { "osm_id": "24257936", "road_name": "Rock Street", "highway": "residential", "maxspeed_kmh": 30.0, "length_km": 0.060986898530169524 }, "geometry": { "type": "LineString", "coordinates": [ [ 153.0089085, -27.4971754 ], [ 153.009009300000031, -27.4966322 ] ] } },
{ "type": "Feature", "properties": { "osm_id": "24294986", "road_name": "Chancellors Place", "highway": "unclassified", "maxspeed_kmh": 30.0, "length_km": 0.041173981877204016 }, "geometry": { "type": "LineString", "coordinates": [ [ 153.0111043, -27.4976374 ], [ 153.0110884, -27.4973135 ] ] } },
{ "type": "Feature", "properties": { "osm_id": "24297572", "road_name": "Sir Fred Schonell Drive", "highway": "tertiary", "maxspeed_kmh": 30.0, "length_km": 0.086562160656332821 }, "geometry": { "type": "LineString", "coordinates": [ [ 153.011797300000012, -27.4945419 ], [ 153.0117617, -27.4947124 ], [ 153.0115645, -27.4946812 ], [ 153.0116041, -27.4945063 ], [ 153.011797300000012, -27.4945419 ] ] } },
{ "type": "Feature", "properties": { "osm_id": "24317067", "road_name": "Baker Street", "highway": "residential", "maxspeed_kmh": 30.0, "length_km": 0.093845687326708574 }, "geometry": { "type": "LineString", "coordinates": [ [ 153.115437, -27.2286709 ], [ 153.1146187, -27.2290983 ] ] } },
{ "type": "Feature", "properties": { "osm_id": "24388854", "road_name": "Sir William MacGregor Drive", "highway": "unclassified", "maxspeed_kmh": 30.0, "length_km": 0.080673427891269259 }, "geometry": { "type": "LineString", "coordinates": [ [ 153.0123099, -27.4923289 ], [ 153.0122878, -27.4924904 ], [ 153.0120943, -27.4924601 ], [ 153.01213150000001, -27.4923043 ], [ 153.0123099, -27.4923289 ] ] } },
{ "type": "Feature", "properties": { "osm_id": "24578275", "road_name": null, "highway": "service", "maxspeed_kmh": 30.0, "length_km": 0.55895669651900926 }, "geometry": { "type": "LineString", "coordinates": [ [ 153.0904706, -27.2177153 ], [ 153.0931476, -27.218107 ], [ 153.093128900000011, -27.2198708 ], [ 153.092652, -27.2200762 ], [ 153.0926991, -27.2203934 ] ] } },
{ "type": "Feature", "properties": { "osm_id": "24867390", "road_name": "Station Road", "highway": "unclassified", "maxspeed_kmh": 30.0, "length_km": 0.0067923507463873651 }, "geometry": { "type": "LineString", "coordinates": [ [ 152.9017938, -27.6745561 ], [ 152.901862200000011, -27.6745489 ] ] } },
{ "type": "Feature", "properties": { "osm_id": "28905098", "road_name": null, "highway": "service", "maxspeed_kmh": 30.0, "length_km": 0.10417455188222342 }, "geometry": { "type": "LineString", "coordinates": [ [ 153.1566958, -27.6252591 ], [ 153.15715, -27.6244105 ] ] } },
{ "type": "Feature", "properties": { "osm_id": "33725132", "road_name": "Redcliffe Parade", "highway": "tertiary", "maxspeed_kmh": 30.0, "length_km": 0.11987476769358754 }, "geometry": { "type": "LineString", "coordinates": [ [ 153.115362299999987, -27.2284519 ], [ 153.116009600000012, -27.229345 ] ] } },
{ "type": "Feature", "properties": { "osm_id": "41662672", "road_name": "Shore Street East", "highway": "residential", "maxspeed_kmh": 30.0, "length_km": 0.65643090397902049 }, "geometry": { "type": "LineString", "coordinates": [ [ 153.280136199999987, -27.5254638 ], [ 153.2818322, -27.5255002 ], [ 153.28627560000001, -27.5236132 ] ] } },
{ "type": "Feature", "properties": { "osm_id": "47359850", "road_name": "The Crescent", "highway": "service", "maxspeed_kmh": 30.0, "length_km": 0.0055067595811093776 }, "geometry": { "type": "LineString", "coordinates": [ [ 152.7556936, -27.6271553 ], [ 152.7556923, -27.627205 ] ] } },
{ "type": "Feature", "properties": { "osm_id": "84698777", "road_name": "Glasshouse Road", "highway": "unclassified", "maxspeed_kmh": 30.0, "length_km": 0.21900637240191079 }, "geometry": { "type": "LineString", "coordinates": [ [ 153.0102446, -27.4955743 ], [ 153.008065, -27.495237 ] ] } },
{ "type": "Feature", "properties": { "osm_id": "95798987", "road_name": null, "highway": "service", "maxspeed_kmh": 30.0, "length_km": 0.1476692117986329 }, "geometry": { "type": "LineString", "coordinates": [ [ 153.155023300000011, -27.6738972 ], [ 153.1550934, -27.6734237 ], [ 153.155203, -27.67333 ], [ 153.155324400000012, -27.6734812 ], [ 153.155023300000011, -27.6738972 ] ] } },
{ "type": "Feature", "properties": { "osm_id": "95799010", "road_name": null, "highway": "service", "maxspeed_kmh": 30.0, "length_km": 0.46089707044549622 }, "geometry": { "type": "LineString", "coordinates": [ [ 153.155023300000011, -27.6738972 ], [ 153.1547248, -27.6742834 ], [ 153.1540785, -27.6739478 ], [ 153.153120699999988, -27.6739202 ], [ 153.151225, -27.6726666 ] ] } },
{ "type": "Feature", "properties": { "osm_id": "114110270", "road_name": "Gladys Lane", "highway": "service", "maxspeed_kmh": 30.0, "length_km": 0.073860383358689788 }, "geometry": { "type": "LineString", "coordinates": [ [ 152.7710778, -27.6243592 ], [ 152.7718188, -27.6244541 ] ] } },
{ "type": "Feature", "properties": { "osm_id": "117150916", "road_name": null, "highway": "service", "maxspeed_kmh": 30.0, "length_km": 0.096875829358788634 }, "geometry": { "type": "LineString", "coordinates": [ [ 153.099847899999986, -27.5040724 ], [ 153.099965200000042, -27.5035592 ], [ 153.1002878, -27.5033887 ] ] } },
{ "type": "Feature", "properties": { "osm_id": "117153531", "road_name": null, "highway": "service", "maxspeed_kmh": 30.0, "length_km": 0.062035160814815915 }, "geometry": { "type": "LineString", "coordinates": [ [ 153.099671, -27.5045995 ], [ 153.099847899999986, -27.5040724 ] ] } },
{ "type": "Feature", "properties": { "osm_id": "178567348", "road_name": null, "highway": "service", "maxspeed_kmh": 30.0, "length_km": 0.29634687369488361 }, "geometry": { "type": "LineString", "coordinates": [ [ 152.9902548, -27.2218686 ], [ 152.9908151, -27.2218128 ], [ 152.991021499999988, -27.2220721 ], [ 152.991266599999989, -27.2238799 ] ] } },
{ "type": "Feature", "properties": { "osm_id": "178567350", "road_name": null, "highway": "service", "maxspeed_kmh": 30.0, "length_km": 0.40882640176874557 }, "geometry": { "type": "LineString", "coordinates": [ [ 152.994274499999989, -27.2228275 ], [ 152.994923, -27.2223434 ], [ 152.996068400000013, -27.2222035 ], [ 152.996065499999986, -27.222298 ], [ 152.9954276, -27.2228653 ], [ 152.9953253, -27.2228053 ], [ 152.9955985, -27.222554 ], [ 152.996065499999986, -27.222298 ] ] } },
{ "type": "Feature", "properties": { "osm_id": "179362559", "road_name": "Leeding Court", "highway": "residential", "maxspeed_kmh": 30.0, "length_km": 0.081043211526345443 }, "geometry": { "type": "LineString", "coordinates": [ [ 153.045920700000011, -27.3278399 ], [ 153.045877, -27.3282377 ], [ 153.046215100000012, -27.3282895 ] ] } },
{ "type": "Feature", "properties": { "osm_id": "203194971", "road_name": "Constellation Drive", "highway": "residential", "maxspeed_kmh": 30.0, "length_km": 0.52445821898814282 }, "geometry": { "type": "LineString", "coordinates": [ [ 153.183888200000013, -27.6829217 ], [ 153.184963, -27.6827873 ], [ 153.1866029, -27.682151 ], [ 153.1876416, -27.6840921 ] ] } },
{ "type": "Feature", "properties": { "osm_id": "206207542", "road_name": "Services Road", "highway": "unclassified", "maxspeed_kmh": 30.0, "length_km": 0.037762815678955654 }, "geometry": { "type": "LineString", "coordinates": [ [ 153.0099993, -27.4973158 ], [ 153.0100559, -27.496979799999988 ] ] } },
{ "type": "Feature", "properties": { "osm_id": "217154411", "road_name": null, "highway": "service", "maxspeed_kmh": 30.0, "length_km": 0.084510144768024334 }, "geometry": { "type": "LineString", "coordinates": [ [ 152.9925905, -27.2251027 ], [ 152.992335500000024, -27.2252751 ], [ 152.9918199, -27.2252222 ] ] } },
{ "type": "Feature", "properties": { "osm_id": "228031400", "road_name": "Discovery Drive", "highway": "unclassified", "maxspeed_kmh": 30.0, "length_km": 0.45709978067169843 }, "geometry": { "type": "LineString", "coordinates": [ [ 152.9951754, -27.5111747 ], [ 152.997274, -27.5107954 ], [ 152.997537900000026, -27.5105973 ], [ 152.997715699999986, -27.510309 ], [ 152.9976212, -27.5100612 ], [ 152.9962774, -27.5095705 ] ] } },
{ "type": "Feature", "properties": { "osm_id": "228360392", "road_name": "Links Loop", "highway": "unclassified", "maxspeed_kmh": 30.0, "length_km": 0.23932280578874951 }, "geometry": { "type": "LineString", "coordinates": [ [ 152.9948635, -27.5088931 ], [ 152.9953356, -27.5082417 ], [ 152.9958801, -27.5083027 ], [ 152.995758099999989, -27.508735699999988 ], [ 152.995409599999988, -27.5090114 ] ] } },
{ "type": "Feature", "properties": { "osm_id": "253618338", "road_name": "Sir Llew Edwards Drive", "highway": "unclassified", "maxspeed_kmh": 30.0, "length_km": 0.038784231204946548 }, "geometry": { "type": "LineString", "coordinates": [ [ 152.9038567, -27.6743866 ], [ 152.9036528, -27.674087199999988 ] ] } },
{ "type": "Feature", "properties": { "osm_id": "253618341", "road_name": "Australia Avenue", "highway": "tertiary", "maxspeed_kmh": 30.0, "length_km": 0.041485949813106486 }, "geometry": { "type": "LineString", "coordinates": [ [ 152.9017938, -27.6745561 ], [ 152.901758300000012, -27.6741831 ] ] } },
{ "type": "Feature", "properties": { "osm_id": "253618342", "road_name": "Transit Road", "highway": "unclassified", "maxspeed_kmh": 30.0, "length_km": 0.0080146544574199764 }, "geometry": { "type": "LineString", "coordinates": [ [ 152.9017503, -27.6741236 ], [ 152.901831300000026, -27.6741177 ] ] } },
{ "type": "Feature", "properties": { "osm_id": "253618343", "road_name": "Sir Llew Edwards Drive", "highway": "unclassified", "maxspeed_kmh": 30.0, "length_km": 0.15771928915100869 }, "geometry": { "type": "LineString", "coordinates": [ [ 152.903885699999989, -27.6744311 ], [ 152.904230399999989, -27.6752829 ], [ 152.9038976, -27.6756893 ] ] } },
{ "type": "Feature", "properties": { "osm_id": "270282065", "road_name": "Chancellors Place", "highway": "unclassified", "maxspeed_kmh": 30.0, "length_km": 0.030591922779285536 }, "geometry": { "type": "LineString", "coordinates": [ [ 153.0111636, -27.4973013 ], [ 153.01125490000004, -27.4975098 ] ] } },
{ "type": "Feature", "properties": { "osm_id": "274459953", "road_name": "Green Trees Drive", "highway": "residential", "maxspeed_kmh": 30.0, "length_km": 0.68850745223403831 }, "geometry": { "type": "LineString", "coordinates": [ [ 153.2027505, -27.6607238 ], [ 153.2057338, -27.6642292 ], [ 153.2066213, -27.6648945 ], [ 153.207297899999986, -27.6645644 ] ] } },
{ "type": "Feature", "properties": { "osm_id": "274459959", "road_name": "Norman Drive", "highway": "residential", "maxspeed_kmh": 30.0, "length_km": 0.71021556185230494 }, "geometry": { "type": "LineString", "coordinates": [ [ 153.2075409, -27.6648326 ], [ 153.206889100000012, -27.6641352 ], [ 153.206741599999987, -27.6633299 ], [ 153.204984200000013, -27.6604298 ], [ 153.2043898, -27.6600235 ], [ 153.2037097, -27.6603599 ] ] } },
{ "type": "Feature", "properties": { "osm_id": "274459960", "road_name": "Promenade Court", "highway": "residential", "maxspeed_kmh": 30.0, "length_km": 0.30629962732862187 }, "geometry": { "type": "LineString", "coordinates": [ [ 153.2027024, -27.6590559 ], [ 153.203816600000039, -27.6605382 ], [ 153.203764400000011, -27.6608474 ], [ 153.203204199999988, -27.6612601 ] ] } },
{ "type": "Feature", "properties": { "osm_id": "276480095", "road_name": "Whistle Bird Court", "highway": "residential", "maxspeed_kmh": 30.0, "length_km": 0.071912409274040121 }, "geometry": { "type": "LineString", "coordinates": [ [ 153.2043075, -27.6610183 ], [ 153.204222499999986, -27.6607652 ], [ 153.2038221, -27.6606385 ] ] } },
{ "type": "Feature", "properties": { "osm_id": "280434624", "road_name": "Services Road", "highway": "unclassified", "maxspeed_kmh": 30.0, "length_km": 0.16537602967341838 }, "geometry": { "type": "LineString", "coordinates": [ [ 153.0100559, -27.496979799999988 ], [ 153.0099306, -27.496745 ], [ 153.0102446, -27.4955743 ] ] } },
{ "type": "Feature", "properties": { "osm_id": "282932267", "road_name": null, "highway": "service", "maxspeed_kmh": 30.0, "length_km": 0.23766827611133423 }, "geometry": { "type": "LineString", "coordinates": [ [ 153.0903222, -27.2184046 ], [ 153.0905795, -27.2163269 ] ] } },
{ "type": "Feature", "properties": { "osm_id": "282932274", "road_name": null, "highway": "service", "maxspeed_kmh": 30.0, "length_km": 0.060555796546235455 }, "geometry": { "type": "LineString", "coordinates": [ [ 153.092652, -27.2200762 ], [ 153.092112, -27.2202622 ] ] } },
{ "type": "Feature", "properties": { "osm_id": "282932278", "road_name": null, "highway": "service", "maxspeed_kmh": 30.0, "length_km": 0.065403018578598274 }, "geometry": { "type": "LineString", "coordinates": [ [ 153.092112, -27.2202622 ], [ 153.0914723, -27.2203461 ] ] } },
{ "type": "Feature", "properties": { "osm_id": "306216976", "road_name": null, "highway": "service", "maxspeed_kmh": 30.0, "length_km": 1.4080981231896517 }, "geometry": { "type": "LineString", "coordinates": [ [ 152.9937123, -27.2237491 ], [ 152.9946783, -27.2222691 ], [ 152.995634599999988, -27.2218387 ], [ 152.996563, -27.2217086 ], [ 152.997549, -27.2219203 ], [ 152.9979495, -27.2221766 ], [ 152.999404199999987, -27.2252211 ], [ 152.999490900000012, -27.225793 ], [ 152.9990469, -27.2260426 ], [ 152.9952547, -27.2256402 ] ] } },
{ "type": "Feature", "properties": { "osm_id": "341390652", "road_name": "Amalia Street", "highway": "residential", "maxspeed_kmh": 30.0, "length_km": 0.021342590612453527 }, "geometry": { "type": "LineString", "coordinates": [ [ 153.2040036, -27.4932742 ], [ 153.2040169, -27.4930875 ] ] } },
{ "type": "Feature", "properties": { "osm_id": "466810029", "road_name": null, "highway": "unclassified", "maxspeed_kmh": 30.0, "length_km": 0.080650228312512562 }, "geometry": { "type": "LineString", "coordinates": [ [ 152.9659729, -27.3366886 ], [ 152.965961600000014, -27.3368575 ], [ 152.9657947, -27.3368579 ], [ 152.9657866, -27.3366852 ], [ 152.9659729, -27.3366886 ] ] } },
{ "type": "Feature", "properties": { "osm_id": "466810030", "road_name": "Cribb Road", "highway": "unclassified", "maxspeed_kmh": 30.0, "length_km": 0.32268404163719927 }, "geometry": { "type": "LineString", "coordinates": [ [ 152.9625192, -27.336402 ], [ 152.9657488, -27.3367501 ] ] } },
{ "type": "Feature", "properties": { "osm_id": "466810032", "road_name": null, "highway": "unclassified", "maxspeed_kmh": 30.0, "length_km": 0.99781343691705349 }, "geometry": { "type": "LineString", "coordinates": [ [ 152.9660064, -27.3367894 ], [ 152.9677146, -27.3369871 ], [ 152.9691334, -27.336314 ], [ 152.971844800000014, -27.3366095 ], [ 152.972040600000014, -27.3363839 ], [ 152.972228, -27.3353348 ], [ 152.972123399999987, -27.3348671 ], [ 152.9724132, -27.3331937 ] ] } },
{ "type": "Feature", "properties": { "osm_id": "510047671", "road_name": "Sir Fred Schonell Drive", "highway": "tertiary", "maxspeed_kmh": 30.0, "length_km": 0.14411730320595353 }, "geometry": { "type": "LineString", "coordinates": [ [ 153.0115645, -27.4946812 ], [ 153.0101506, -27.4943846 ] ] } },
{ "type": "Feature", "properties": { "osm_id": "510047675", "road_name": "Campbell Road", "highway": "unclassified", "maxspeed_kmh": 30.0, "length_km": 0.02699394460545174 }, "geometry": { "type": "LineString", "coordinates": [ [ 153.0120665, -27.4946716 ], [ 153.0117938, -27.4946843 ] ] } },
{ "type": "Feature", "properties": { "osm_id": "510047676", "road_name": "Campbell Road", "highway": "unclassified", "maxspeed_kmh": 30.0, "length_km": 0.027205667898838812 }, "geometry": { "type": "LineString", "coordinates": [ [ 153.0118143, -27.4945734 ], [ 153.0120665, -27.4946716 ] ] } },
{ "type": "Feature", "properties": { "osm_id": "510047677", "road_name": "Sir William MacGregor Drive", "highway": "unclassified", "maxspeed_kmh": 30.0, "length_km": 0.024377785233016105 }, "geometry": { "type": "LineString", "coordinates": [ [ 153.011790600000012, -27.4942971 ], [ 153.0117711, -27.4945158 ] ] } },
{ "type": "Feature", "properties": { "osm_id": "510047678", "road_name": "Sir Fred Schonell Drive", "highway": "tertiary", "maxspeed_kmh": 30.0, "length_km": 0.14179535999097514 }, "geometry": { "type": "LineString", "coordinates": [ [ 153.0101506, -27.4943846 ], [ 153.0115693, -27.4945346 ] ] } },
{ "type": "Feature", "properties": { "osm_id": "510047679", "road_name": "Sir William MacGregor Drive", "highway": "unclassified", "maxspeed_kmh": 30.0, "length_km": 0.025858280887875552 }, "geometry": { "type": "LineString", "coordinates": [ [ 153.011647399999987, -27.4944898 ], [ 153.011790600000012, -27.4942971 ] ] } },
{ "type": "Feature", "properties": { "osm_id": "512408177", "road_name": "Sir Fred Schonell Drive", "highway": "tertiary", "maxspeed_kmh": 30.0, "length_km": 0.092799336408152439 }, "geometry": { "type": "LineString", "coordinates": [ [ 153.0092232, -27.4942507 ], [ 153.0101506, -27.4943846 ] ] } },
{ "type": "Feature", "properties": { "osm_id": "513305557", "road_name": null, "highway": "service", "maxspeed_kmh": 30.0, "length_km": 0.070283445707780459 }, "geometry": { "type": "LineString", "coordinates": [ [ 152.9993361, -27.2264853 ], [ 152.9995939, -27.2270765 ] ] } },
{ "type": "Feature", "properties": { "osm_id": "513305559", "road_name": null, "highway": "service", "maxspeed_kmh": 30.0, "length_km": 0.087761267793883657 }, "geometry": { "type": "LineString", "coordinates": [ [ 152.9993361, -27.2264853 ], [ 152.998454400000014, -27.226416 ] ] } },
{ "type": "Feature", "properties": { "osm_id": "530172463", "road_name": "Sir William MacGregor Drive", "highway": "unclassified", "maxspeed_kmh": 30.0, "length_km": 0.26569736335167576 }, "geometry": { "type": "LineString", "coordinates": [ [ 153.0144392, -27.4925162 ], [ 153.015457, -27.4930877 ], [ 153.0165307, -27.4939956 ] ] } },
{ "type": "Feature", "properties": { "osm_id": "563614978", "road_name": "Station Road", "highway": "unclassified", "maxspeed_kmh": 30.0, "length_km": 0.20001667497068612 }, "geometry": { "type": "LineString", "coordinates": [ [ 152.903885699999989, -27.6744311 ], [ 152.901867399999986, -27.6746054 ] ] } },
{ "type": "Feature", "properties": { "osm_id": "574883156", "road_name": "Sir Fred Schonell Drive", "highway": "tertiary", "maxspeed_kmh": 30.0, "length_km": 0.028933476884131729 }, "geometry": { "type": "LineString", "coordinates": [ [ 153.0089343, -27.4942076 ], [ 153.0092232, -27.4942507 ] ] } },
{ "type": "Feature", "properties": { "osm_id": "611704424", "road_name": null, "highway": "service", "maxspeed_kmh": 30.0, "length_km": 0.053113715674270499 }, "geometry": { "type": "LineString", "coordinates": [ [ 152.9991924, -27.2260233 ], [ 152.9993361, -27.2264853 ] ] } },
{ "type": "Feature", "properties": { "osm_id": "611704437", "road_name": null, "highway": "service", "maxspeed_kmh": 30.0, "length_km": 0.31636250889964274 }, "geometry": { "type": "LineString", "coordinates": [ [ 152.9949418, -27.2255849 ], [ 152.9948252, -27.2252351 ], [ 152.9949811, -27.2240646 ], [ 152.9945701, -27.22394 ], [ 152.9940751, -27.2240314 ], [ 152.9937123, -27.2237491 ] ] } },
{ "type": "Feature", "properties": { "osm_id": "611704438", "road_name": null, "highway": "service", "maxspeed_kmh": 30.0, "length_km": 0.21716450633179024 }, "geometry": { "type": "LineString", "coordinates": [ [ 152.9925905, -27.2251027 ], [ 152.9929352, -27.223937 ], [ 152.9937123, -27.2237491 ] ] } },
{ "type": "Feature", "properties": { "osm_id": "653559286", "road_name": "University Drive", "highway": "unclassified", "maxspeed_kmh": 30.0, "length_km": 0.010624391551734797 }, "geometry": { "type": "LineString", "coordinates": [ [ 153.013230600000014, -27.4958743 ], [ 153.0132614, -27.4959662 ] ] } },
{ "type": "Feature", "properties": { "osm_id": "654232922", "road_name": null, "highway": "service", "maxspeed_kmh": 30.0, "length_km": 0.082099224013746253 }, "geometry": { "type": "LineString", "coordinates": [ [ 153.0914723, -27.2203461 ], [ 153.0914602, -27.2201978 ], [ 153.092112, -27.2202622 ] ] } },
{ "type": "Feature", "properties": { "osm_id": "700092829", "road_name": null, "highway": "service", "maxspeed_kmh": 30.0, "length_km": 0.03053438288536937 }, "geometry": { "type": "LineString", "coordinates": [ [ 153.0883264, -27.2189639 ], [ 153.0883077, -27.218903 ], [ 153.0883767, -27.2188886 ], [ 153.088394100000016, -27.218945 ], [ 153.0883264, -27.2189639 ] ] } },
{ "type": "Feature", "properties": { "osm_id": "700092830", "road_name": null, "highway": "service", "maxspeed_kmh": 30.0, "length_km": 0.067280591187241875 }, "geometry": { "type": "LineString", "coordinates": [ [ 153.0876619, -27.218718 ], [ 153.0883077, -27.218903 ] ] } },
{ "type": "Feature", "properties": { "osm_id": "755066948", "road_name": "Redcliffe Parade", "highway": "tertiary", "maxspeed_kmh": 30.0, "length_km": 0.041148172681620132 }, "geometry": { "type": "LineString", "coordinates": [ [ 153.1165495, -27.2308596 ], [ 153.1168265, -27.2311283 ] ] } },
{ "type": "Feature", "properties": { "osm_id": "755066949", "road_name": "Redcliffe Parade", "highway": "tertiary", "maxspeed_kmh": 30.0, "length_km": 0.032901124001616468 }, "geometry": { "type": "LineString", "coordinates": [ [ 153.1165968, -27.2311526 ], [ 153.1165495, -27.2308596 ] ] } },
{ "type": "Feature", "properties": { "osm_id": "824116342", "road_name": null, "highway": "trunk_link", "maxspeed_kmh": 30.0, "length_km": 0.079574061547474151 }, "geometry": { "type": "LineString", "coordinates": [ [ 153.109771200000012, -27.5014579 ], [ 153.1089874, -27.5015257 ] ] } },
{ "type": "Feature", "properties": { "osm_id": "830272642", "road_name": "Creek Street", "highway": "unclassified", "maxspeed_kmh": 30.0, "length_km": 0.044063959150983614 }, "geometry": { "type": "LineString", "coordinates": [ [ 153.1137015, -27.2256424 ], [ 153.1139082, -27.2259913 ] ] } },
{ "type": "Feature", "properties": { "osm_id": "971282839", "road_name": null, "highway": "service", "maxspeed_kmh": 30.0, "length_km": 0.29547964089556877 }, "geometry": { "type": "LineString", "coordinates": [ [ 152.9922228, -27.225279 ], [ 152.993326, -27.2256295 ], [ 152.9950916, -27.2256118 ] ] } },
{ "type": "Feature", "properties": { "osm_id": "971282840", "road_name": null, "highway": "service", "maxspeed_kmh": 30.0, "length_km": 0.051484357195147663 }, "geometry": { "type": "LineString", "coordinates": [ [ 152.9950916, -27.2256118 ], [ 152.995190400000013, -27.225547699999986 ], [ 152.9952547, -27.2256402 ], [ 152.9951604, -27.2256934 ], [ 152.9950916, -27.2256118 ] ] } },
{ "type": "Feature", "properties": { "osm_id": "988157543", "road_name": null, "highway": "service", "maxspeed_kmh": 30.0, "length_km": 0.075020810445173933 }, "geometry": { "type": "LineString", "coordinates": [ [ 152.866502700000012, -27.6532806 ], [ 152.8666613, -27.6531224 ], [ 152.8670813, -27.6533574 ] ] } },
{ "type": "Feature", "properties": { "osm_id": "992611856", "road_name": "College Road", "highway": "unclassified", "maxspeed_kmh": 30.0, "length_km": 0.54114367933116103 }, "geometry": { "type": "LineString", "coordinates": [ [ 153.012531, -27.5018059 ], [ 153.013598300000012, -27.5008382 ], [ 153.0161228, -27.5006803 ], [ 153.016611899999987, -27.5002966 ], [ 153.0169349, -27.4997206 ] ] } },
{ "type": "Feature", "properties": { "osm_id": "1005884345", "road_name": "Sir Llew Edwards Drive", "highway": "unclassified", "maxspeed_kmh": 30.0, "length_km": 0.0075349575205388352 }, "geometry": { "type": "LineString", "coordinates": [ [ 152.9038976, -27.6756893 ], [ 152.9038405, -27.6757345 ] ] } },
{ "type": "Feature", "properties": { "osm_id": "1006948914", "road_name": "The Crescent", "highway": "service", "maxspeed_kmh": 30.0, "length_km": 0.053306539654955173 }, "geometry": { "type": "LineString", "coordinates": [ [ 152.7556923, -27.627205 ], [ 152.7558129, -27.6276707 ] ] } },
{ "type": "Feature", "properties": { "osm_id": "1041875121", "road_name": "Redcliffe Parade", "highway": "tertiary", "maxspeed_kmh": 30.0, "length_km": 0.022176193992842163 }, "geometry": { "type": "LineString", "coordinates": [ [ 153.114765, -27.2250888 ], [ 153.11477, -27.2252871 ] ] } },
{ "type": "Feature", "properties": { "osm_id": "1041875122", "road_name": "Redcliffe Parade", "highway": "tertiary", "maxspeed_kmh": 30.0, "length_km": 0.020130494358270076 }, "geometry": { "type": "LineString", "coordinates": [ [ 153.11477, -27.2252871 ], [ 153.11465530000001, -27.2251384 ] ] } },
{ "type": "Feature", "properties": { "osm_id": "1043659331", "road_name": "Redcliffe Parade", "highway": "tertiary", "maxspeed_kmh": 30.0, "length_km": 0.044448783869672173 }, "geometry": { "type": "LineString", "coordinates": [ [ 153.1164244, -27.2304742 ], [ 153.1165495, -27.2308596 ] ] } },
{ "type": "Feature", "properties": { "osm_id": "1043659333", "road_name": "Redcliffe Parade", "highway": "tertiary", "maxspeed_kmh": 30.0, "length_km": 0.088367558031894916 }, "geometry": { "type": "LineString", "coordinates": [ [ 153.1161205, -27.2295197 ], [ 153.116366, -27.2302867 ] ] } },
{ "type": "Feature", "properties": { "osm_id": "1043659336", "road_name": "Sutton Street", "highway": "unclassified", "maxspeed_kmh": 30.0, "length_km": 0.07049431117343713 }, "geometry": { "type": "LineString", "coordinates": [ [ 153.113944300000014, -27.2263133 ], [ 153.114001300000012, -27.2269477 ] ] } },
{ "type": "Feature", "properties": { "osm_id": "1043659338", "road_name": "Creek Street", "highway": "unclassified", "maxspeed_kmh": 30.0, "length_km": 0.02194203231675329 }, "geometry": { "type": "LineString", "coordinates": [ [ 153.11392570000001, -27.2261159 ], [ 153.113944300000014, -27.2263133 ] ] } },
{ "type": "Feature", "properties": { "osm_id": "1043659340", "road_name": "Redcliffe Parade", "highway": "tertiary", "maxspeed_kmh": 30.0, "length_km": 0.099108552331874739 }, "geometry": { "type": "LineString", "coordinates": [ [ 153.114785399999988, -27.22541050000001 ], [ 153.1148696, -27.2263021 ] ] } },
{ "type": "Feature", "properties": { "osm_id": "1043659342", "road_name": "Redcliffe Parade", "highway": "tertiary", "maxspeed_kmh": 30.0, "length_km": 0.10073624793605417 }, "geometry": { "type": "LineString", "coordinates": [ [ 153.114898899999986, -27.2265741 ], [ 153.115024799999986, -27.2274759 ] ] } },
{ "type": "Feature", "properties": { "osm_id": "1043659344", "road_name": "Redcliffe Parade", "highway": "tertiary", "maxspeed_kmh": 30.0, "length_km": 0.066851543880995221 }, "geometry": { "type": "LineString", "coordinates": [ [ 153.11508, -27.2276774 ], [ 153.1152907, -27.2282508 ] ] } },
{ "type": "Feature", "properties": { "osm_id": "1043659347", "road_name": "Sutton Street", "highway": "unclassified", "maxspeed_kmh": 30.0, "length_km": 0.034014147539443387 }, "geometry": { "type": "LineString", "coordinates": [ [ 153.114187500000014, -27.2279117 ], [ 153.1142959, -27.2282031 ] ] } },
{ "type": "Feature", "properties": { "osm_id": "1090665517", "road_name": "Campbell Road", "highway": "unclassified", "maxspeed_kmh": 30.0, "length_km": 0.017986032377040599 }, "geometry": { "type": "LineString", "coordinates": [ [ 153.0129068, -27.4949295 ], [ 153.013068299999986, -27.4950045 ] ] } },
{ "type": "Feature", "properties": { "osm_id": "1090665518", "road_name": "Campbell Road", "highway": "unclassified", "maxspeed_kmh": 30.0, "length_km": 0.034135297941557882 }, "geometry": { "type": "LineString", "coordinates": [ [ 153.013068299999986, -27.4950045 ], [ 153.013366100000013, -27.4951605 ] ] } },
{ "type": "Feature", "properties": { "osm_id": "1090665519", "road_name": "University Drive", "highway": "unclassified", "maxspeed_kmh": 30.0, "length_km": 0.061876702495771055 }, "geometry": { "type": "LineString", "coordinates": [ [ 153.0132614, -27.4959662 ], [ 153.0133491, -27.4964814 ] ] } },
{ "type": "Feature", "properties": { "osm_id": "1090665520", "road_name": "Union Road", "highway": "unclassified", "maxspeed_kmh": 30.0, "length_km": 0.020319980603390044 }, "geometry": { "type": "LineString", "coordinates": [ [ 153.015743500000013, -27.4965137 ], [ 153.015646, -27.496675 ] ] } },
{ "type": "Feature", "properties": { "osm_id": "1090665521", "road_name": "Union Road", "highway": "unclassified", "maxspeed_kmh": 30.0, "length_km": 0.14248493668416057 }, "geometry": { "type": "LineString", "coordinates": [ [ 153.0161095, -27.4952702 ], [ 153.015743500000013, -27.4965137 ] ] } },
{ "type": "Feature", "properties": { "osm_id": "1090665522", "road_name": "Union Road", "highway": "unclassified", "maxspeed_kmh": 30.0, "length_km": 0.013917103336514325 }, "geometry": { "type": "LineString", "coordinates": [ [ 153.0161248, -27.4951453 ], [ 153.0161095, -27.4952702 ] ] } },
{ "type": "Feature", "properties": { "osm_id": "1090665528", "road_name": "Sir William MacGregor Drive", "highway": "unclassified", "maxspeed_kmh": 30.0, "length_km": 1.4709884014680934 }, "geometry": { "type": "LineString", "coordinates": [ [ 153.0192495, -27.4978012 ], [ 153.020097, -27.4999208 ], [ 153.0200927, -27.5003706 ], [ 153.0196617, -27.5010126 ], [ 153.0180131, -27.5017327 ], [ 153.0127755, -27.502747 ], [ 153.010552600000011, -27.5021809 ], [ 153.0102068, -27.5018714 ], [ 153.0098835, -27.5010353 ] ] } },
{ "type": "Feature", "properties": { "osm_id": "1090665530", "road_name": "Chancellors Place", "highway": "unclassified", "maxspeed_kmh": 30.0, "length_km": 0.020811251606407389 }, "geometry": { "type": "LineString", "coordinates": [ [ 153.01125490000004, -27.4975098 ], [ 153.0111043, -27.4976374 ] ] } },
{ "type": "Feature", "properties": { "osm_id": "1090665532", "road_name": "Chancellors Place", "highway": "unclassified", "maxspeed_kmh": 30.0, "length_km": 0.019009269487508487 }, "geometry": { "type": "LineString", "coordinates": [ [ 153.0110678, -27.4978059 ], [ 153.0111043, -27.4976374 ] ] } },
{ "type": "Feature", "properties": { "osm_id": "1090665533", "road_name": "Chancellors Place", "highway": "unclassified", "maxspeed_kmh": 30.0, "length_km": 0.0076178534454824269 }, "geometry": { "type": "LineString", "coordinates": [ [ 153.0110884, -27.4973135 ], [ 153.0111636, -27.4973013 ] ] } },
{ "type": "Feature", "properties": { "osm_id": "1115867539", "road_name": "Redcliffe Parade", "highway": "tertiary", "maxspeed_kmh": 30.0, "length_km": 0.013752941364758348 }, "geometry": { "type": "LineString", "coordinates": [ [ 153.11477, -27.2252871 ], [ 153.114785399999988, -27.22541050000001 ] ] } },
{ "type": "Feature", "properties": { "osm_id": "1116722731", "road_name": null, "highway": "service", "maxspeed_kmh": 30.0, "length_km": 0.15290454755431224 }, "geometry": { "type": "LineString", "coordinates": [ [ 153.0905795, -27.2163269 ], [ 153.0890561, -27.216101599999988 ] ] } },
{ "type": "Feature", "properties": { "osm_id": "1125290483", "road_name": "Union Road", "highway": "unclassified", "maxspeed_kmh": 30.0, "length_km": 0.01179637421317592 }, "geometry": { "type": "LineString", "coordinates": [ [ 153.0161197, -27.4950389 ], [ 153.0161248, -27.4951453 ] ] } },
{ "type": "Feature", "properties": { "osm_id": "1125819939", "road_name": "Creek Street", "highway": "residential", "maxspeed_kmh": 30.0, "length_km": 0.024491322714025671 }, "geometry": { "type": "LineString", "coordinates": [ [ 153.113944300000014, -27.2263133 ], [ 153.1137195, -27.2264017 ] ] } },
{ "type": "Feature", "properties": { "osm_id": "1127666625", "road_name": "Chancellors Place", "highway": "unclassified", "maxspeed_kmh": 30.0, "length_km": 0.04643627349163304 }, "geometry": { "type": "LineString", "coordinates": [ [ 153.0108266, -27.498776800000012 ], [ 153.010955, -27.498379 ] ] } },
{ "type": "Feature", "properties": { "osm_id": "1127671618", "road_name": "Chancellors Place", "highway": "unclassified", "maxspeed_kmh": 30.0, "length_km": 0.017493278225806048 }, "geometry": { "type": "LineString", "coordinates": [ [ 153.0109752, -27.4982753 ], [ 153.01100550000001, -27.4981197 ] ] } },
{ "type": "Feature", "properties": { "osm_id": "1198551983", "road_name": "Chancellors Place", "highway": "unclassified", "maxspeed_kmh": 30.0, "length_km": 0.0061374175191134311 }, "geometry": { "type": "LineString", "coordinates": [ [ 153.011056, -27.4978603 ], [ 153.0110678, -27.4978059 ] ] } },
{ "type": "Feature", "properties": { "osm_id": "1198551984", "road_name": "Chancellors Place", "highway": "unclassified", "maxspeed_kmh": 30.0, "length_km": 0.0072738925408401996 }, "geometry": { "type": "LineString", "coordinates": [ [ 153.0110434, -27.497925 ], [ 153.011056, -27.4978603 ] ] } },
{ "type": "Feature", "properties": { "osm_id": "1198551985", "road_name": "Chancellors Place", "highway": "unclassified", "maxspeed_kmh": 30.0, "length_km": 0.011658547511640447 }, "geometry": { "type": "LineString", "coordinates": [ [ 153.010955, -27.498379 ], [ 153.0109752, -27.4982753 ] ] } },
{ "type": "Feature", "properties": { "osm_id": "1219429288", "road_name": "Sir William MacGregor Drive", "highway": "unclassified", "maxspeed_kmh": 30.0, "length_km": 0.018966390284502359 }, "geometry": { "type": "LineString", "coordinates": [ [ 153.009802799999989, -27.5009522 ], [ 153.0097059, -27.5008145 ] ] } },
{ "type": "Feature", "properties": { "osm_id": "1276287840", "road_name": "Australia Avenue", "highway": "tertiary", "maxspeed_kmh": 30.0, "length_km": 0.0066378667668554516 }, "geometry": { "type": "LineString", "coordinates": [ [ 152.901758300000012, -27.6741831 ], [ 152.9017503, -27.6741236 ] ] } },
{ "type": "Feature", "properties": { "osm_id": "1276287841", "road_name": "Transit Road", "highway": "unclassified", "maxspeed_kmh": 30.0, "length_km": 0.18728835512803291 }, "geometry": { "type": "LineString", "coordinates": [ [ 152.901831300000026, -27.6741177 ], [ 152.9034986, -27.6739663 ], [ 152.9036528, -27.674087199999988 ] ] } },
{ "type": "Feature", "properties": { "osm_id": "1290128282", "road_name": "Discovery Drive", "highway": "unclassified", "maxspeed_kmh": 30.0, "length_km": 0.022383032668171068 }, "geometry": { "type": "LineString", "coordinates": [ [ 152.994639799999987, -27.5087921 ], [ 152.9944173, -27.5087537 ] ] } },
{ "type": "Feature", "properties": { "osm_id": "1290128496", "road_name": "Discovery Drive", "highway": "unclassified", "maxspeed_kmh": 30.0, "length_km": 0.10515196811876461 }, "geometry": { "type": "LineString", "coordinates": [ [ 152.996096099999988, -27.5095238 ], [ 152.995472, -27.5093807 ], [ 152.995409599999988, -27.5090114 ] ] } },
{ "type": "Feature", "properties": { "osm_id": "1290128502", "road_name": "Discovery Drive", "highway": "unclassified", "maxspeed_kmh": 30.0, "length_km": 0.01851960407079219 }, "geometry": { "type": "LineString", "coordinates": [ [ 152.995409599999988, -27.5090114 ], [ 152.9952231, -27.509004 ] ] } },
{ "type": "Feature", "properties": { "osm_id": "1290128527", "road_name": "Discovery Drive", "highway": "unclassified", "maxspeed_kmh": 30.0, "length_km": 0.020990928534512066 }, "geometry": { "type": "LineString", "coordinates": [ [ 152.9952231, -27.509004 ], [ 152.9950155, -27.5089634 ] ] } },
{ "type": "Feature", "properties": { "osm_id": "1290128543", "road_name": "Discovery Drive", "highway": "unclassified", "maxspeed_kmh": 30.0, "length_km": 0.016911632680020994 }, "geometry": { "type": "LineString", "coordinates": [ [ 152.9950155, -27.5089634 ], [ 152.9948635, -27.5088931 ] ] } },
{ "type": "Feature", "properties": { "osm_id": "1290128602", "road_name": "Discovery Drive", "highway": "unclassified", "maxspeed_kmh": 30.0, "length_km": 0.019533161253870144 }, "geometry": { "type": "LineString", "coordinates": [ [ 152.9948635, -27.5088931 ], [ 152.9946945, -27.5088015 ] ] } },
{ "type": "Feature", "properties": { "osm_id": "1298907336", "road_name": "Discovery Drive", "highway": "unclassified", "maxspeed_kmh": 30.0, "length_km": 0.0055018540497013633 }, "geometry": { "type": "LineString", "coordinates": [ [ 152.9946945, -27.5088015 ], [ 152.994639799999987, -27.5087921 ] ] } },
{ "type": "Feature", "properties": { "osm_id": "1311378354", "road_name": "Sir William MacGregor Drive", "highway": "unclassified", "maxspeed_kmh": 30.0, "length_km": 0.014710778840297058 }, "geometry": { "type": "LineString", "coordinates": [ [ 153.009854499999989, -27.5009127 ], [ 153.0098835, -27.5010353 ] ] } },
{ "type": "Feature", "properties": { "osm_id": "1311378355", "road_name": "Sir William MacGregor Drive", "highway": "unclassified", "maxspeed_kmh": 30.0, "length_km": 0.012785409035009609 }, "geometry": { "type": "LineString", "coordinates": [ [ 153.0098835, -27.5010353 ], [ 153.009802799999989, -27.5009522 ] ] } },
{ "type": "Feature", "properties": { "osm_id": "1311398500", "road_name": "Sir William MacGregor Drive", "highway": "unclassified", "maxspeed_kmh": 30.0, "length_km": 0.0192076460383655 }, "geometry": { "type": "LineString", "coordinates": [ [ 153.0097059, -27.5008145 ], [ 153.009854499999989, -27.5009127 ] ] } },
{ "type": "Feature", "properties": { "osm_id": "1347295827", "road_name": "Cribb Road", "highway": "unclassified", "maxspeed_kmh": 30.0, "length_km": 0.47987939585853168 }, "geometry": { "type": "LineString", "coordinates": [ [ 152.965902199999988, -27.3366543 ], [ 152.966046799999987, -27.3358895 ], [ 152.9667666, -27.3348748 ], [ 152.967189, -27.3325656 ] ] } },
{ "type": "Feature", "properties": { "osm_id": "1364423097", "road_name": "Sir William MacGregor Drive", "highway": "unclassified", "maxspeed_kmh": 30.0, "length_km": 0.32355656984017533 }, "geometry": { "type": "LineString", "coordinates": [ [ 153.016809300000034, -27.4942901 ], [ 153.0177416, -27.4952947 ], [ 153.01866430000004, -27.4966862 ] ] } },
{ "type": "Feature", "properties": { "osm_id": "1365214732", "road_name": "University Drive", "highway": "unclassified", "maxspeed_kmh": 30.0, "length_km": 0.0097810948513838893 }, "geometry": { "type": "LineString", "coordinates": [ [ 153.0127037, -27.4966552 ], [ 153.0126112, -27.4966363 ] ] } },
{ "type": "Feature", "properties": { "osm_id": "1365214790", "road_name": "University Drive", "highway": "unclassified", "maxspeed_kmh": 30.0, "length_km": 0.068168006504983586 }, "geometry": { "type": "LineString", "coordinates": [ [ 153.0125696, -27.4960512 ], [ 153.013230600000014, -27.4958743 ] ] } },
{ "type": "Feature", "properties": { "osm_id": "1448396085", "road_name": "Thynne Road", "highway": "unclassified", "maxspeed_kmh": 30.0, "length_km": 0.055669888082977459 }, "geometry": { "type": "LineString", "coordinates": [ [ 153.0169349, -27.4997206 ], [ 153.0174637, -27.4998504 ] ] } },
{ "type": "Feature", "properties": { "osm_id": "1448396086", "road_name": "Thynne Road", "highway": "unclassified", "maxspeed_kmh": 30.0, "length_km": 0.02222995193123245 }, "geometry": { "type": "LineString", "coordinates": [ [ 153.0174637, -27.4998504 ], [ 153.0176684, -27.4999309 ] ] } },
{ "type": "Feature", "properties": { "osm_id": "1451550715", "road_name": "Sir William MacGregor Drive", "highway": "unclassified", "maxspeed_kmh": 30.0, "length_km": 0.036007484550715625 }, "geometry": { "type": "LineString", "coordinates": [ [ 153.019121, -27.497497 ], [ 153.0192495, -27.4978012 ] ] } },
{ "type": "Feature", "properties": { "osm_id": "1454606767", "road_name": "Station Road", "highway": "unclassified", "maxspeed_kmh": 30.0, "length_km": 0.19752425702126392 }, "geometry": { "type": "LineString", "coordinates": [ [ 152.901862200000011, -27.6745489 ], [ 152.9038567, -27.6743866 ] ] } },
{ "type": "Feature", "properties": { "osm_id": "1464104628", "road_name": "Middle Street", "highway": "residential", "maxspeed_kmh": 30.0, "length_km": 0.14047112340007933 }, "geometry": { "type": "LineString", "coordinates": [ [ 153.267955300000011, -27.5259428 ], [ 153.2693751, -27.5260183 ] ] } },
{ "type": "Feature", "properties": { "osm_id": "1523107056", "road_name": "Campbell Road", "highway": "unclassified", "maxspeed_kmh": 30.0, "length_km": 0.0077794268688360611 }, "geometry": { "type": "LineString", "coordinates": [ [ 153.0148127, -27.4965034 ], [ 153.0148527, -27.4965639 ] ] } },
{ "type": "Feature", "properties": { "osm_id": "1523107060", "road_name": "Campbell Road", "highway": "unclassified", "maxspeed_kmh": 30.0, "length_km": 0.009556344173841172 }, "geometry": { "type": "LineString", "coordinates": [ [ 153.0147579, -27.4964323 ], [ 153.0148127, -27.4965034 ] ] } },
{ "type": "Feature", "properties": { "osm_id": "1523107103", "road_name": "Campbell Road", "highway": "unclassified", "maxspeed_kmh": 30.0, "length_km": 0.022551778506605728 }, "geometry": { "type": "LineString", "coordinates": [ [ 153.0146286, -27.4962645 ], [ 153.0147579, -27.4964323 ] ] } },
{ "type": "Feature", "properties": { "osm_id": "1523107125", "road_name": "Campbell Road", "highway": "unclassified", "maxspeed_kmh": 30.0, "length_km": 0.015212203210015207 }, "geometry": { "type": "LineString", "coordinates": [ [ 153.014541400000013, -27.4961513 ], [ 153.0146286, -27.4962645 ] ] } },
{ "type": "Feature", "properties": { "osm_id": "1523107203", "road_name": "Campbell Road", "highway": "unclassified", "maxspeed_kmh": 30.0, "length_km": 0.042664414525258008 }, "geometry": { "type": "LineString", "coordinates": [ [ 153.0142859, -27.4958409 ], [ 153.014541400000013, -27.4961513 ] ] } },
{ "type": "Feature", "properties": { "osm_id": "1523107287", "road_name": "Campbell Road", "highway": "unclassified", "maxspeed_kmh": 30.0, "length_km": 0.030969792775220373 }, "geometry": { "type": "LineString", "coordinates": [ [ 153.014069799999987, -27.495639 ], [ 153.0142859, -27.4958409 ] ] } },
{ "type": "Feature", "properties": { "osm_id": "1523107366", "road_name": "Campbell Road", "highway": "unclassified", "maxspeed_kmh": 30.0, "length_km": 0.0047487256544240788 }, "geometry": { "type": "LineString", "coordinates": [ [ 153.0140346, -27.4956098 ], [ 153.014069799999987, -27.495639 ] ] } },
{ "type": "Feature", "properties": { "osm_id": "1523107368", "road_name": "Campbell Road", "highway": "unclassified", "maxspeed_kmh": 30.0, "length_km": 0.016736130426029436 }, "geometry": { "type": "LineString", "coordinates": [ [ 153.013907100000011, -27.4955105 ], [ 153.0140346, -27.4956098 ] ] } },
{ "type": "Feature", "properties": { "osm_id": "1523107373", "road_name": "Campbell Road", "highway": "unclassified", "maxspeed_kmh": 30.0, "length_km": 0.012221525153655077 }, "geometry": { "type": "LineString", "coordinates": [ [ 153.013809400000014, -27.4954428 ], [ 153.013907100000011, -27.4955105 ] ] } },
{ "type": "Feature", "properties": { "osm_id": "1523107432", "road_name": "Campbell Road", "highway": "unclassified", "maxspeed_kmh": 30.0, "length_km": 0.053854790055787492 }, "geometry": { "type": "LineString", "coordinates": [ [ 153.013366100000013, -27.4951605 ], [ 153.013809400000014, -27.4954428 ] ] } },
{ "type": "Feature", "properties": { "osm_id": "1523107569", "road_name": "Blair Drive", "highway": "unclassified", "maxspeed_kmh": 30.0, "length_km": 0.049306454713199943 }, "geometry": { "type": "LineString", "coordinates": [ [ 153.0129068, -27.4949295 ], [ 153.013321600000012, -27.4947234 ] ] } },
{ "type": "Feature", "properties": { "osm_id": "1523120481", "road_name": "University Drive", "highway": "unclassified", "maxspeed_kmh": 30.0, "length_km": 0.066593190471563049 }, "geometry": { "type": "LineString", "coordinates": [ [ 153.0133491, -27.4964814 ], [ 153.0127037, -27.4966552 ] ] } },
{ "type": "Feature", "properties": { "osm_id": "1523120489", "road_name": "University Drive", "highway": "unclassified", "maxspeed_kmh": 30.0, "length_km": 0.0089449413206202835 }, "geometry": { "type": "LineString", "coordinates": [ [ 153.0126112, -27.4966363 ], [ 153.0125753, -27.4965631 ] ] } },
{ "type": "Feature", "properties": { "osm_id": "1523121022", "road_name": "Sir William MacGregor Drive", "highway": "unclassified", "maxspeed_kmh": 30.0, "length_km": 0.078009561640908512 }, "geometry": { "type": "LineString", "coordinates": [ [ 153.011790600000012, -27.4942971 ], [ 153.0119288, -27.4936037 ] ] } },
{ "type": "Feature", "properties": { "osm_id": "1523121049", "road_name": "Sir William MacGregor Drive", "highway": "unclassified", "maxspeed_kmh": 30.0, "length_km": 0.029148923995839147 }, "geometry": { "type": "LineString", "coordinates": [ [ 153.012089800000012, -27.4927624 ], [ 153.0121619, -27.492509 ] ] } },
{ "type": "Feature", "properties": { "osm_id": "1523121077", "road_name": "Sir William MacGregor Drive", "highway": "unclassified", "maxspeed_kmh": 30.0, "length_km": 0.034391361768636462 }, "geometry": { "type": "LineString", "coordinates": [ [ 153.0120315, -27.4930685 ], [ 153.012089800000012, -27.4927624 ] ] } },
{ "type": "Feature", "properties": { "osm_id": "1523121198", "road_name": "Sir William MacGregor Drive", "highway": "unclassified", "maxspeed_kmh": 30.0, "length_km": 0.050347490511543157 }, "geometry": { "type": "LineString", "coordinates": [ [ 153.0123099, -27.4923289 ], [ 153.0127427, -27.4921241 ] ] } },
{ "type": "Feature", "properties": { "osm_id": "1523121398", "road_name": "Sir William MacGregor Drive", "highway": "unclassified", "maxspeed_kmh": 30.0, "length_km": 0.07037373666927231 }, "geometry": { "type": "LineString", "coordinates": [ [ 153.0127427, -27.4921241 ], [ 153.0134474, -27.492213 ] ] } },
{ "type": "Feature", "properties": { "osm_id": "1523121547", "road_name": "Sir William MacGregor Drive", "highway": "unclassified", "maxspeed_kmh": 30.0, "length_km": 0.028050455546617954 }, "geometry": { "type": "LineString", "coordinates": [ [ 153.0134474, -27.492213 ], [ 153.0137233, -27.4922723 ] ] } },
{ "type": "Feature", "properties": { "osm_id": "1523121548", "road_name": "Sir William MacGregor Drive", "highway": "unclassified", "maxspeed_kmh": 30.0, "length_km": 0.017270355201023553 }, "geometry": { "type": "LineString", "coordinates": [ [ 153.0137233, -27.4922723 ], [ 153.013889299999988, -27.4923212 ] ] } },
{ "type": "Feature", "properties": { "osm_id": "1523121559", "road_name": "Sir William MacGregor Drive", "highway": "unclassified", "maxspeed_kmh": 30.0, "length_km": 0.015052064611921585 }, "geometry": { "type": "LineString", "coordinates": [ [ 153.013889299999988, -27.4923212 ], [ 153.0140337, -27.4923646 ] ] } },
{ "type": "Feature", "properties": { "osm_id": "1523121560", "road_name": "Sir William MacGregor Drive", "highway": "unclassified", "maxspeed_kmh": 30.0, "length_km": 0.0088891249125227795 }, "geometry": { "type": "LineString", "coordinates": [ [ 153.0140337, -27.4923646 ], [ 153.0141173, -27.4923943 ] ] } },
{ "type": "Feature", "properties": { "osm_id": "1523121586", "road_name": "Sir William MacGregor Drive", "highway": "unclassified", "maxspeed_kmh": 30.0, "length_km": 0.012329663420278478 }, "geometry": { "type": "LineString", "coordinates": [ [ 153.0141173, -27.4923943 ], [ 153.0142333, -27.4924354 ] ] } },
{ "type": "Feature", "properties": { "osm_id": "1523121622", "road_name": "Sir William MacGregor Drive", "highway": "unclassified", "maxspeed_kmh": 30.0, "length_km": 0.022238503564932371 }, "geometry": { "type": "LineString", "coordinates": [ [ 153.0142333, -27.4924354 ], [ 153.0144392, -27.4925162 ] ] } },
{ "type": "Feature", "properties": { "osm_id": "1523122190", "road_name": "Sir William MacGregor Drive", "highway": "unclassified", "maxspeed_kmh": 30.0, "length_km": 0.019717961773439829 }, "geometry": { "type": "LineString", "coordinates": [ [ 153.0165307, -27.4939956 ], [ 153.0166595, -27.4941316 ] ] } },
{ "type": "Feature", "properties": { "osm_id": "1523122193", "road_name": "Sir William MacGregor Drive", "highway": "unclassified", "maxspeed_kmh": 30.0, "length_km": 0.022960441338222785 }, "geometry": { "type": "LineString", "coordinates": [ [ 153.0166595, -27.4941316 ], [ 153.016809300000034, -27.4942901 ] ] } },
{ "type": "Feature", "properties": { "osm_id": "1523122762", "road_name": "Sir William MacGregor Drive", "highway": "unclassified", "maxspeed_kmh": 30.0, "length_km": 0.022008705949703136 }, "geometry": { "type": "LineString", "coordinates": [ [ 153.0188442, -27.4969899 ], [ 153.018968, -27.4971539 ] ] } },
{ "type": "Feature", "properties": { "osm_id": "1523122825", "road_name": "Sir William MacGregor Drive", "highway": "unclassified", "maxspeed_kmh": 30.0, "length_km": 0.038044829692019631 }, "geometry": { "type": "LineString", "coordinates": [ [ 153.01866430000004, -27.4966862 ], [ 153.0188442, -27.4969899 ] ] } },
{ "type": "Feature", "properties": { "osm_id": "1523122826", "road_name": "Sir William MacGregor Drive", "highway": "unclassified", "maxspeed_kmh": 30.0, "length_km": 0.040919619158066807 }, "geometry": { "type": "LineString", "coordinates": [ [ 153.018968, -27.4971539 ], [ 153.019121, -27.497497 ] ] } },
{ "type": "Feature", "properties": { "osm_id": "1533156626", "road_name": null, "highway": "service", "maxspeed_kmh": 30.0, "length_km": 0.022690402333733647 }, "geometry": { "type": "LineString", "coordinates": [ [ 153.0883986, -27.2189329 ], [ 153.0886255, -27.218961499999988 ] ] } },
{ "type": "Feature", "properties": { "osm_id": "1541360078", "road_name": "Station Road", "highway": "unclassified", "maxspeed_kmh": 30.0, "length_km": 0.0069097228741693629 }, "geometry": { "type": "LineString", "coordinates": [ [ 152.901867399999986, -27.6746054 ], [ 152.901797500000015, -27.6746097 ] ] } },
{ "type": "Feature", "properties": { "osm_id": "1541360079", "road_name": "Sir Llew Edwards Drive", "highway": "unclassified", "maxspeed_kmh": 30.0, "length_km": 0.0056988225802882975 }, "geometry": { "type": "LineString", "coordinates": [ [ 152.9038567, -27.6743866 ], [ 152.903885699999989, -27.6744311 ] ] } },
{ "type": "Feature", "properties": { "osm_id": "1552171395", "road_name": "Blair Drive", "highway": "unclassified", "maxspeed_kmh": 30.0, "length_km": 0.097182982839843612 }, "geometry": { "type": "LineString", "coordinates": [ [ 153.013321600000012, -27.4947234 ], [ 153.01424, -27.4944224 ] ] } }
]
}
